STARLINK-2037           
1 47653U 21012AK  23262.95787794  .00012091  00000+0  82911-3 0  9998
2 47653  53.0536 139.6502 0001386  86.7167 273.3980 15.06405314143838
STARLINK-2038           
1 47654U 21012AL  23263.09978745  .00006877  00000+0  48031-3 0  9993
2 47654  53.0528 159.0166 0001361  81.4209 278.6934 15.06382741143570
STARLINK-2039           
1 47655U 21012AM  23263.09241666 -.00001404  00000+0 -75418-4 0  9992
2 47655  53.0539 159.0472 0001507  80.9066 279.2093 15.06378209143577
STARLINK-2040           
1 47656U 21012AN  23263.37440247  .00013715  00000+0  93919-3 0  9991
2 47656  53.0534 137.7809 0001855  86.4471 273.6730 15.06347335143894
STARLINK-2041           
1 47657U 21012AP  23263.11452591  .00013860  00000+0  94720-3 0  9991
2 47657  53.0535 158.9485 0000329 235.1357 124.9601 15.06411887143587
STARLINK-2042           
1 47658U 21012AQ  23263.04081031  .00011571  00000+0  79453-3 0  9994
2 47658  53.0531 159.2764 0001318  87.2946 272.8194 15.06394125143571
STARLINK-2043           
1 47659U 21012AR  23263.39834798  .00024021  00000+0  16265-2 0  9994
2 47659  53.0563  37.6709 0000679  88.2215 271.8851 15.06388490145292
STARLINK-2044           
1 47660U 21012AS  23263.35142799  .00013508  00000+0  92457-3 0  9991
2 47660  53.0558  28.5105 0000959  75.8577 284.2519 15.06375355145421
STARLINK-2051           
1 47661U 21012AT  23263.07211746  .00020657  00000+0  14003-2 0  9993
2 47661  53.0535 139.1400 0001163 105.1846 254.9271 15.06434413143853
STARLINK-2052           
1 47662U 21012AU  23263.38451032 -.00002729  00000+0 -16445-3 0  9997
2 47662  53.0548 137.7379 0001305  81.8835 278.2302 15.06382332143905
STARLINK-2053           
1 47663U 21012AV  23262.71832064  .00022799  00000+0  15449-2 0  9991
2 47663  53.0553  61.0446 0001176 105.9900 254.1219 15.06391088144913
STARLINK-2054           
1 47664U 21012AW  23263.38545787  .00003260  00000+0  23783-3 0  9992
2 47664  53.0533 137.7340 0001545  90.3470 269.7696 15.06370286143901
STARLINK-2056           
1 47665U 21012AX  23263.03390607 -.00000684  00000+0 -27032-4 0  9995
2 47665  53.0538 134.3602 0001288 117.2658 242.8462 15.06375867143916
STARLINK-2057           
1 47666U 21012AY  23263.36198657 -.00001150  00000+0 -58312-4 0  9997
2 47666  53.0529 133.1929 0001950  84.8203 275.3008 15.06408177143960
STARLINK-2058           
1 47667U 21012AZ  23263.08504626  .00014736  00000+0  10068-2 0  9990
2 47667  53.0532 159.0825 0001546 102.3668 257.7494 15.06374893143576
STARLINK-2059           
1 47668U 21012BA  23263.06108671  .00002880  00000+0  21226-3 0  9995
2 47668  53.0545 139.1848 0001478 100.2410 259.8745 15.06384306143854
STARLINK-2062           
1 47670U 21012BC  23263.07583172  .00004769  00000+0  33894-3 0  9994
2 47670  53.0526 139.1222 0001046  84.5009 275.6099 15.06388778143856
STARLINK-2064           
1 47671U 21012BD  23263.38914458 -.00001858  00000+0 -10594-3 0  9994
2 47671  53.0536 137.7173 0001615  82.9780 277.1393 15.06373672143904
STARLINK-2065           
1 47672U 21012BE  23263.36792431  .00008655  00000+0  59889-3 0  9998
2 47672  53.0536 127.8082 0000935  91.7012 268.4084 15.06418170144032
STARLINK-2066           
1 47673U 21012BF  23262.94681942  .00003844  00000+0  27693-3 0  9999
2 47673  53.0536 139.7013 0001294  90.4367 269.6770 15.06385950143838
STARLINK-2067           
1 47674U 21012BG  23263.09328593  .00031235  00000+0  21014-2 0  9992
2 47674  53.0528 139.0331 0001518  89.7355 270.3808 15.06490545143853
STARLINK-2078           
1 47675U 21012BH  23262.95419124  .00012588  00000+0  86259-3 0  9991
2 47675  53.0536 139.6667 0001565 110.0560 250.0598 15.06395668143838
STARLINK-2083           
1 47676U 21012BJ  23263.34766837  .00020361  00000+0  13828-2 0  9991
2 47676  53.0556  27.8997 0001032  71.9693 288.1409 15.06375286145431
STARLINK-2090           
1 47677U 21012BK  23263.40478710  .00011852  00000+0  81409-3 0  9995
2 47677  53.0544 157.6351 0001526  72.0241 288.0914 15.06359327143621
STARLINK-2095           
1 47679U 21012BM  23263.10252131 -.00000278  00000+0  21428-6 0  9990
2 47679  53.0547 159.0003 0001145  88.8628 271.2492 15.06395226143585
STARLINK-2068           
1 47722U 21017A   23263.34446660  .00002377  00000+0  17847-3 0  9990
2 47722  53.0546 283.1573 0001493 103.2535 256.8621 15.06384047141455
STARLINK-2107           
1 47723U 21017B   23263.28592856 -.00000627  00000+0 -23178-4 0  9996
2 47723  53.0545 218.1776 0001527  90.0719 270.0445 15.06384747142352
STARLINK-2116           
1 47724U 21017C   23263.12374216  .00002013  00000+0  15412-3 0  9998
2 47724  53.0543 218.9061 0001321 101.6802 258.4335 15.06372107142322
STARLINK-2125           
1 47725U 21017D   23263.48955722  .00003231  00000+0  23563-3 0  9994
2 47725  53.0535 287.2635 0001355  92.1000 268.0144 15.06415268141400
STARLINK-2126           
1 47726U 21017E   23263.46346558  .00031580  00000+0  20559-2 0  9993
2 47726  53.0541 287.2635 0002639  49.4045 310.7173 15.07700742141400
STARLINK-2129           
1 47727U 21017F   23263.09423182  .00004318  00000+0  30884-3 0  9994
2 47727  53.0542 209.0383 0001309 104.3901 255.7233 15.06372481142465
STARLINK-2131           
1 47728U 21017G   23263.11729300 -.00002958  00000+0 -17976-3 0  9996
2 47728  53.0554 288.9358 0001649  93.4179 266.6999 15.06394275141351
STARLINK-2132           
1 47729U 21017H   23263.07999948  .00013409  00000+0  91734-3 0  9994
2 47729  53.0535 234.3042 0001403 100.9828 259.1318 15.06401657142120
STARLINK-2140           
1 47730U 21017J   23263.40524286  .00024849  00000+0  16793-2 0  9993
2 47730  53.0543 302.6528 0001586  76.1539 283.9627 15.06442373141187
STARLINK-2141           
1 47731U 21017K   23263.47759463  .00009069  00000+0  62695-3 0  9998
2 47731  53.0531 297.3189 0001505  96.0616 264.0545 15.06397731141261
STARLINK-2142           
1 47732U 21017L   23263.11870919  .00001723  00000+0  13458-3 0  9992
2 47732  53.0527 214.1712 0001580  52.2337 307.8794 15.06381748142391
STARLINK-2143           
1 47733U 21017M   23263.46561733  .00016723  00000+0  11393-2 0  9993
2 47733  53.0541 307.3728 0001427  89.7326 270.3826 15.06385962141125
STARLINK-2144           
1 47734U 21017N   23263.41862097  .00016294  00000+0  11103-2 0  9998
2 47734  53.0531 297.5838 0001404  90.1973 269.9177 15.06397814141252
STARLINK-2146           
1 47735U 21017P   23263.10302876 -.00005176  00000+0 -32893-3 0  9998
2 47735  53.0540 224.1688 0001295  42.2818 317.8270 15.06391799142250
STARLINK-2147           
1 47736U 21017Q   23263.38636561 -.00007080  00000+0 -45716-3 0  9994
2 47736  53.0528 287.7294 0001399  96.4198 263.6951 15.06378556141396
STARLINK-2148           
1 47737U 21017R   23262.76769203 -.00000552  00000+0 -49172-5 0  9995
2 47737  53.0542 116.9221 0000964  59.5762 300.5335 15.35398740143758
STARLINK-2149           
1 47738U 21017S   23263.49328808  .00001028  00000+0  87905-4 0  9991
2 47738  53.0541 287.5167 0001498  90.0509 270.0652 15.06403436141404
STARLINK-2150           
1 47739U 21017T   23263.44856885  .00020390  00000+0  13844-2 0  9990
2 47739  53.0534 312.4501 0001390  96.4737 263.6410 15.06383995141059
STARLINK-2152           
1 47740U 21017U   23263.09793211  .00003129  00000+0  22879-3 0  9996
2 47740  53.0548 299.0224 0001117  76.0530 284.0583 15.06410902141204
STARLINK-2154           
1 47741U 21017V   23263.37807298  .00006789  00000+0  47424-3 0  9997
2 47741  53.0543 297.7690 0001468  74.8746 285.2406 15.06396966141251
STARLINK-2156           
1 47742U 21017W   23263.45639924 -.00006170  00000+0 -39588-3 0  9994
2 47742  53.0526 287.4156 0001369  92.0949 268.0197 15.06379874141405
STARLINK-2157           
1 47743U 21017X   23263.34950573  .00006057  00000+0  42521-3 0  9992
2 47743  53.0543 287.8931 0001507 111.5387 248.5763 15.06398347141382
STARLINK-2158           
1 47744U 21017Y   23263.05735948  .00018869  00000+0  12815-2 0  9994
2 47744  53.0545 289.1564 0001645  83.7958 276.3219 15.06422266141348
STARLINK-2159           
1 47745U 21017Z   23263.42230743  .00000074  00000+0  23891-4 0  9996
2 47745  53.0546 297.5694 0001827  71.7002 288.4185 15.06388608141253
STARLINK-2160           
1 47746U 21017AA  23263.08320075  .00014554  00000+0  99415-3 0  9999
2 47746  53.0529 299.0911 0002220  68.7828 291.3397 15.06392867141209
STARLINK-2161           
1 47747U 21017AB  23262.35062182  .00019934  00000+0  13539-2 0  9990
2 47747  53.0532 292.3796 0001464  79.2301 280.8853 15.06384836141233
STARLINK-2162           
1 47748U 21017AC  23263.07305956  .00013981  00000+0  95575-3 0  9997
2 47748  53.0528 289.1317 0001946  95.6439 264.4771 15.06394747141342
STARLINK-2163           
1 47749U 21017AD  23263.35319667 -.00010059  00000+0 -65790-3 0  9994
2 47749  53.0545 287.8790 0001458  97.4365 262.6789 15.06367384141388
STARLINK-2164           
1 47750U 21017AE  23263.46377105 -.00006491  00000+0 -41760-3 0  9995
2 47750  53.0531 287.3795 0001520  97.2657 262.8505 15.06369748141404
STARLINK-2168           
1 47751U 21017AF  23262.76435628  .00018846  00000+0  12802-2 0  9992
2 47751  53.0527 280.5215 0001506  87.8209 272.2952 15.06415635141435
STARLINK-2169           
1 47752U 21017AG  23263.46146604 -.00003798  00000+0 -23641-3 0  9990
2 47752  53.0540 292.3892 0001457  87.1485 272.9671 15.06373971141337
STARLINK-2170           
1 47753U 21017AH  23263.37070466  .00002148  00000+0  16313-3 0  9997
2 47753  53.0537 297.7994 0001855  75.6849 284.4346 15.06389769141243
STARLINK-2171           
1 47754U 21017AJ  23263.40755865 -.00007108  00000+0 -45906-3 0  9998
2 47754  53.0542 297.6334 0001405  99.9421 260.1727 15.06374285141255
STARLINK-2174           
1 47756U 21017AL  23263.13848569  .00006468  00000+0  45281-3 0  9996
2 47756  53.0534 298.8423 0001551 100.3834 259.7330 15.06394462141216
STARLINK-2175           
